STARLINK-31621          
1 59465U 24068L   26068.24638670 -.00002550  00000+0 -83213-4 0  9991
2 59465  43.0064  37.1437 0001369 259.3328 100.7369 15.27567599108454
STARLINK-36554          
1 67502U 26012K   26067.71268370  .00032833  00000+0  11969-2 0  9992
2 67502  42.9934 319.8184 0000695 339.2059  20.8765 15.27591469  7619
